{
  "norad_id": 48119,
  "name": "STARLINK-2459",
  "history": [
    {
      "epoch": "2026-03-28T14:59:43.198656Z",
      "apogee_km": 475.98791047428585,
      "perigee_km": 474.50894989845165,
      "latitude_deg": 1.4441639170428347e-05,
      "longitude_deg": 13.523144099076582,
      "height_km": 476.45966836547996,
      "semi_major_axis_km": 6853.3854301863685,
      "eccentricity": 0.0001079,
      "inclination_deg": 53.1593,
      "raan_deg": 64.4957,
      "arg_perigee_deg": 115.0289,
      "mean_anomaly_deg": 245.0824,
      "mean_motion_rev_day": 15.30188827
    },
    {
      "epoch": "2026-03-29T05:06:11.619072Z",
      "apogee_km": 476.02089135141523,
      "perigee_km": 474.32538242354894,
      "latitude_deg": -3.152489271329557e-05,
      "longitude_deg": 158.59510077221034,
      "height_km": 476.3713801742044,
      "semi_major_axis_km": 6853.310136887481,
      "eccentricity": 0.0001237,
      "inclination_deg": 53.1605,
      "raan_deg": 61.7655,
      "arg_perigee_deg": 110.7214,
      "mean_anomaly_deg": 249.3919,
      "mean_motion_rev_day": 15.30214044
    },
    {
      "epoch": "2026-03-30T04:36:59.780448Z",
      "apogee_km": 475.86738249823793,
      "perigee_km": 474.5981384186007,
      "latitude_deg": 1.310378313948122e-05,
      "longitude_deg": 160.3769021167198,
      "height_km": 476.2817974707771,
      "semi_major_axis_km": 6853.369760458419,
      "eccentricity": 9.26e-05,
      "inclination_deg": 53.1597,
      "raan_deg": 57.2136,
      "arg_perigee_deg": 103.7186,
      "mean_anomaly_deg": 256.3918,
      "mean_motion_rev_day": 15.30194075
    },
    {
      "epoch": "2026-03-31T04:07:47.004384Z",
      "apogee_km": 475.8801443684206,
      "perigee_km": 474.4262873820262,
      "latitude_deg": -1.098100782801892e-05,
      "longitude_deg": 162.16236951389416,
      "height_km": 476.1521263304415,
      "semi_major_axis_km": 6853.290215875223,
      "eccentricity": 0.00010607,
      "inclination_deg": 53.1601,
      "raan_deg": 52.6615,
      "arg_perigee_deg": 97.9483,
      "mean_anomaly_deg": 262.1638,
      "mean_motion_rev_day": 15.30220716
    },
    {
      "epoch": "2026-04-01T06:46:42.409056Z",
      "apogee_km": 475.9310719742216,
      "perigee_km": 474.58232409444827,
      "latitude_deg": -3.882163070954069e-05,
      "longitude_deg": 116.18147329698314,
      "height_km": 476.00165761520486,
      "semi_major_axis_km": 6853.393698034335,
      "eccentricity": 9.84e-05,
      "inclination_deg": 53.1612,
      "raan_deg": 47.5059,
      "arg_perigee_deg": 76.8284,
      "mean_anomaly_deg": 283.2826,
      "mean_motion_rev_day": 15.30186058
    },
    {
      "epoch": "2026-04-02T06:17:30.554016Z",
      "apogee_km": 476.0126053855038,
      "perigee_km": 474.3922018169169,
      "latitude_deg": 4.658848325427439e-05,
      "longitude_deg": 117.96337405570627,
      "height_km": 475.9117975101553,
      "semi_major_axis_km": 6853.33940360121,
      "eccentricity": 0.00011822,
      "inclination_deg": 53.1611,
      "raan_deg": 42.954,
      "arg_perigee_deg": 76.5128,
      "mean_anomaly_deg": 283.6005,
      "mean_motion_rev_day": 15.30204242
    },
    {
      "epoch": "2026-04-03T13:38:34.196640Z",
      "apogee_km": 476.5496973518211,
      "perigee_km": 473.8672979240455,
      "latitude_deg": 6.224240793794437e-05,
      "longitude_deg": 0.3426682821411477,
      "height_km": 475.995812631095,
      "semi_major_axis_km": 6853.3454976379335,
      "eccentricity": 0.0001957,
      "inclination_deg": 53.1628,
      "raan_deg": 36.886,
      "arg_perigee_deg": 85.2917,
      "mean_anomaly_deg": 274.8308,
      "mean_motion_rev_day": 15.30202201
    },
    {
      "epoch": "2026-04-04T13:09:22.366656Z",
      "apogee_km": 476.60005117846504,
      "perigee_km": 473.8696678296392,
      "latitude_deg": 1.2867674272050709e-05,
      "longitude_deg": 2.1256623194635806,
      "height_km": 476.0781201553733,
      "semi_major_axis_km": 6853.371859504052,
      "eccentricity": 0.0001992,
      "inclination_deg": 53.1639,
      "raan_deg": 32.3354,
      "arg_perigee_deg": 87.7244,
      "mean_anomaly_deg": 272.3985,
      "mean_motion_rev_day": 15.30193372
    },
    {
      "epoch": "2026-04-05T04:49:53.790528Z",
      "apogee_km": 476.2783640774769,
      "perigee_km": 474.1328566398788,
      "latitude_deg": -6.4799086030369725e-06,
      "longitude_deg": 123.31744869766739,
      "height_km": 476.08177152113257,
      "semi_major_axis_km": 6853.342610358678,
      "eccentricity": 0.00015653,
      "inclination_deg": 53.1624,
      "raan_deg": 29.3019,
      "arg_perigee_deg": 88.8375,
      "mean_anomaly_deg": 271.2805,
      "mean_motion_rev_day": 15.30203168
    },
    {
      "epoch": "2026-04-05T23:38:33.037440Z",
      "apogee_km": 476.50193965121343,
      "perigee_km": 474.0308765183945,
      "latitude_deg": -6.163524173126814e-05,
      "longitude_deg": -163.260458885934,
      "height_km": 476.69095538855896,
      "semi_major_axis_km": 6853.403408084804,
      "eccentricity": 0.00018028,
      "inclination_deg": 53.1628,
      "raan_deg": 25.6601,
      "arg_perigee_deg": 115.2317,
      "mean_anomaly_deg": 244.887,
      "mean_motion_rev_day": 15.30182806
    },
    {
      "epoch": "2026-04-07T03:51:30.382848Z",
      "apogee_km": 476.1940183668985,
      "perigee_km": 474.21271766650534,
      "latitude_deg": 4.979319727758006e-05,
      "longitude_deg": 126.88289490705424,
      "height_km": 476.0976400040302,
      "semi_major_axis_km": 6853.340368016702,
      "eccentricity": 0.00014455,
      "inclination_deg": 53.1615,
      "raan_deg": 20.2011,
      "arg_perigee_deg": 89.7851,
      "mean_anomaly_deg": 270.3316,
      "mean_motion_rev_day": 15.30203919
    },
    {
      "epoch": "2026-04-07T22:39:59.861376Z",
      "apogee_km": 476.19528622600683,
      "perigee_km": 473.26472617947456,
      "latitude_deg": 3.5019664206139245e-05,
      "longitude_deg": -159.65277045008727,
      "height_km": 475.431122220097,
      "semi_major_axis_km": 6852.86700620274,
      "eccentricity": 0.00021382,
      "inclination_deg": 53.1605,
      "raan_deg": 16.5607,
      "arg_perigee_deg": 82.3184,
      "mean_anomaly_deg": 277.806,
      "mean_motion_rev_day": 15.3036247
    },
    {
      "epoch": "2026-04-09T20:00:01.999008Z",
      "apogee_km": 471.5824859307313,
      "perigee_km": 469.8497260949098,
      "latitude_deg": -16.175612756424226,
      "longitude_deg": -142.7937530459019,
      "height_km": 475.51567767898763,
      "semi_major_axis_km": 6848.853106012821,
      "eccentricity": 0.0001265,
      "inclination_deg": 53.1597,
      "raan_deg": 7.7713,
      "arg_perigee_deg": 99.3263,
      "mean_anomaly_deg": 240.5293,
      "mean_motion_rev_day": 15.31708014
    },
    {
      "epoch": "2026-04-10T12:00:02.000160Z",
      "apogee_km": 471.5264128839508,
      "perigee_km": 469.99362973058214,
      "latitude_deg": 42.87273534425903,
      "longitude_deg": 29.689266063820842,
      "height_km": 474.3542985016401,
      "semi_major_axis_km": 6848.897021307266,
      "eccentricity": 0.0001119,
      "inclination_deg": 53.1597,
      "raan_deg": 4.6672,
      "arg_perigee_deg": 94.5183,
      "mean_anomaly_deg": 323.4786,
      "mean_motion_rev_day": 15.31693282
    },
    {
      "epoch": "2026-04-11T20:00:01.000224Z",
      "apogee_km": 471.5999777713423,
      "perigee_km": 469.84803912538064,
      "latitude_deg": -26.930724099361598,
      "longitude_deg": 60.6482596419369,
      "height_km": 479.1762671019947,
      "semi_major_axis_km": 6848.861008448361,
      "eccentricity": 0.0001279,
      "inclination_deg": 53.1601,
      "raan_deg": 358.4598,
      "arg_perigee_deg": 91.4481,
      "mean_anomaly_deg": 122.734,
      "mean_motion_rev_day": 15.31705363
    },
    {
      "epoch": "2026-04-12T16:59:35.068992Z",
      "apogee_km": 474.0494860003064,
      "perigee_km": 467.5000086745631,
      "latitude_deg": -1.4566971153135294e-05,
      "longitude_deg": -101.4172365782475,
      "height_km": 474.7398608149901,
      "semi_major_axis_km": 6848.9117473374345,
      "eccentricity": 0.00047814,
      "inclination_deg": 53.1624,
      "raan_deg": 354.3882,
      "arg_perigee_deg": 200.7267,
      "mean_anomaly_deg": 159.3541,
      "mean_motion_rev_day": 15.31688342
    },
    {
      "epoch": "2026-04-14T20:40:15.909600Z",
      "apogee_km": 471.6555873102179,
      "perigee_km": 469.64752250591846,
      "latitude_deg": -2.8737389560958747e-05,
      "longitude_deg": -168.73255510360724,
      "height_km": 471.3950163545754,
      "semi_major_axis_km": 6848.788554908067,
      "eccentricity": 0.0001466,
      "inclination_deg": 53.1632,
      "raan_deg": 344.3654,
      "arg_perigee_deg": 81.1011,
      "mean_anomaly_deg": 279.0156,
      "mean_motion_rev_day": 15.31729669
    },
    {
      "epoch": "2026-04-15T09:11:56.896224Z",
      "apogee_km": 471.6834425517127,
      "perigee_km": 469.69180435121234,
      "latitude_deg": 2.8474167409533396e-06,
      "longitude_deg": 0.4008829954400575,
      "height_km": 471.47499792618663,
      "semi_major_axis_km": 6848.824623451462,
      "eccentricity": 0.0001454,
      "inclination_deg": 53.1632,
      "raan_deg": 341.9341,
      "arg_perigee_deg": 83.5772,
      "mean_anomaly_deg": 276.5395,
      "mean_motion_rev_day": 15.31717569
    },
    {
      "epoch": "2026-04-16T19:39:05.278176Z",
      "apogee_km": 471.6220354586312,
      "perigee_km": 469.7783284892448,
      "latitude_deg": 2.6054195991779536e-05,
      "longitude_deg": -164.48342857959534,
      "height_km": 472.380096496219,
      "semi_major_axis_km": 6848.837181973938,
      "eccentricity": 0.0001346,
      "inclination_deg": 53.1607,
      "raan_deg": 335.2496,
      "arg_perigee_deg": 147.8453,
      "mean_anomaly_deg": 212.2631,
      "mean_motion_rev_day": 15.31713356
    }
  ]
}